ONEWEB-0311             
1 49097U 21075Y   24328.43547792  .00000084  00000+0  18394-3 0  9993
2 49097  87.9079 119.5615 0001709 111.8514 248.2799 13.17649579159465
ONEWEB-0312             
1 49098U 21075Z   24328.83033413  .00000058  00000+0  11653-3 0  9990
2 49098  87.9080 119.5141 0001313 114.6173 245.5095 13.17649887159477
ONEWEB-0313             
1 49099U 21075AA  24329.44275405 -.00000079  00000+0 -23603-3 0  9991
2 49099  87.9078 119.4079 0001441 105.1716 254.9575 13.17650345159562
ONEWEB-0314             
1 49100U 21075AB  24328.87759440  .00000242  00000+0  58918-3 0  9993
2 49100  87.9075 119.4595 0001377 111.8905 248.2373 13.17648886159454
ONEWEB-0315             
1 49101U 21075AC  24329.33656489 -.00000531  00000+0 -15105-2 0  9998
2 49101  87.8860 104.1307 0002063 107.9200 252.2153 13.12441721161420
ONEWEB-0316             
1 49102U 21075AD  24329.32700423  .00000051  00000+0  97321-4 0  9993
2 49102  87.9105  88.8566 0001643 103.0077 257.1239 13.18689732163110
ONEWEB-0317             
1 49103U 21075AE  24329.33007588 -.00000305  00000+0 -88234-3 0  9993
2 49103  87.8862 104.1443 0001402  79.5812 280.5475 13.12440098161432
ONEWEB-0318             
1 49104U 21075AF  24328.41330617  .00000018  00000+0  13461-4 0  9994
2 49104  87.9101  89.0281 0001740 107.8098 252.3224 13.18688861162941
